{"type": "FeatureCollection", "features": [ {"type": "Feature", "properties": {"norad_id": 30208, "name": "FENGYUN 1C DEB", "group": "fengyun-1c-debris", "lat": 67.91157398709296, "lon": -24.10756416974363, "alt_km": 830.1390037226929, "timestamp": "2025-12-22T23:36:20.988115+00:00", "meta": {"OBJECT_NAME": "FENGYUN 1C DEB", "OBJECT_ID": "1999-025VR", "EPOCH": "2025-12-21T06:51:11.681568", "MEAN_MOTION": 14.23544135, "ECCENTRICITY": 0.0033019, "INCLINATION": 98.5617, "RA_OF_ASC_NODE": 356.0308, "ARG_OF_PERICENTER": 244.5876, "MEAN_ANOMALY": 128.0451, "EPHEMERIS_TYPE": 0, "CLASSIFICATION_TYPE": "U", "NORAD_CAT_ID": 30208, "ELEMENT_SET_NO": 999, "REV_AT_EPOCH": 97959, "BSTAR": 0.00037818, "MEAN_MOTION_DOT": 8.22e-06, "MEAN_MOTION_DDOT": 0}, "tle": {"line1": "1 30208U 99025VR  25355.28555187  .00000822  00000+0  37818-3 0  9990", "line2": "2 30208  98.5617 356.0308 0033019 244.5876 128.0451 14.23544135979590"}}, "geometry": {"type": "Point", "coordinates": [-24.10756416974363, 67.91157398709296]}}, {"type": "Feature", "properties": {"norad_id": 30209, "name": "FENGYUN 1C DEB", "group": "fengyun-1c-debris", "lat": 20.64874616078558, "lon": -9.774969375988434, "alt_km": 877.0696633826128, "timestamp": "2025-12-22T23:36:20.988126+00:00", "meta": {"OBJECT_NAME": "FENGYUN 1C DEB", "OBJECT_ID": "1999-025VS", "EPOCH": "2025-12-22T13:54:15.350112", "MEAN_MOTION": 14.12914225, "ECCENTRICITY": 0.0038812, "INCLINATION": 98.7143, "RA_OF_ASC_NODE": 353.1451, "ARG_OF_PERICENTER": 210.379, "MEAN_ANOMALY": 275.5923, "EPHEMERIS_TYPE": 0, "CLASSIFICATION_TYPE": "U", "NORAD_CAT_ID": 30209, "ELEMENT_SET_NO": 999, "REV_AT_EPOCH": 97345, "BSTAR": 0.00027014851, "MEAN_MOTION_DOT": 4.64e-06, "MEAN_MOTION_DDOT": 0}, "tle": {"line1": "1 30209U 99025VS  25356.57934433  .00000464  00000+0  27015-3 0  9999", "line2": "2 30209  98.7143 353.1451 0038812 210.3790 275.5923 14.12914225973456"}}, "geometry": {"type": "Point", "coordinates": [-9.774969375988434, 20.64874616078558]}}, {"type": "Feature", "properties": {"norad_id": 30210, "name": "FENGYUN 1C DEB", "group": "fengyun-1c-debris", "lat": -37.82604685209607, "lon": -140.30319876263235, "alt_km": 885.4574378690058, "timestamp": "2025-12-22T23:36:20.988136+00:00", "meta": {"OBJECT_NAME": "FENGYUN 1C DEB", "OBJECT_ID": "1999-025VT", "EPOCH": "2025-12-22T02:25:58.381824", "MEAN_MOTION": 14.08286728, "ECCENTRICITY": 0.0056809, "INCLINATION": 99.1893, "RA_OF_ASC_NODE": 46.0188, "ARG_OF_PERICENTER": 110.7315, "MEAN_ANOMALY": 316.783, "EPHEMERIS_TYPE": 0, "CLASSIFICATION_TYPE": "U", "NORAD_CAT_ID": 30210, "ELEMENT_SET_NO": 999, "REV_AT_EPOCH": 96889, "BSTAR": 0.00059223077, "MEAN_MOTION_DOT": 9.82e-06, "MEAN_MOTION_DDOT": 0}, "tle": {"line1": "1 30210U 99025VT  25356.10137016  .00000982  00000+0  59223-3 0  9993", "line2": "2 30210  99.1893  46.0188 0056809 110.7315 316.7830 14.08286728968894"}}, "geometry": {"type": "Point", "coordinates": [-140.30319876263235, -37.82604685209607]}}, {"type": "Feature", "properties": {"norad_id": 30212, "name": "FENGYUN 1C DEB", "group": "fengyun-1c-debris", "lat": 52.5985089311076, "lon": -149.93288993514003, "alt_km": 963.2171915593126, "timestamp": "2025-12-22T23:36:20.988147+00:00", "meta": {"OBJECT_NAME": "FENGYUN 1C DEB", "OBJECT_ID": "1999-025VV", "EPOCH": "2025-12-21T14:41:14.318592", "MEAN_MOTION": 13.9706098, "ECCENTRICITY": 0.0096999, "INCLINATION": 99.4566, "RA_OF_ASC_NODE": 221.2474, "ARG_OF_PERICENTER": 213.021, "MEAN_ANOMALY": 146.487, "EPHEMERIS_TYPE": 0, "CLASSIFICATION_TYPE": "U", "NORAD_CAT_ID": 30212, "ELEMENT_SET_NO": 999, "REV_AT_EPOCH": 96349, "BSTAR": 0.00022585, "MEAN_MOTION_DOT": 2.81e-06, "MEAN_MOTION_DDOT": 0}, "tle": {"line1": "1 30212U 99025VV  25355.61197128  .00000281  00000+0  22585-3 0  9993", "line2": "2 30212  99.4566 221.2474 0096999 213.0210 146.4870 13.97060980963496"}}, "geometry": {"type": "Point", "coordinates": [-149.93288993514003, 52.5985089311076]}}, {"type": "Feature", "properties": {"norad_id": 30213, "name": "FENGYUN 1C DEB", "group": "fengyun-1c-debris", "lat": -57.888551957374844, "lon": 88.42784207465405, "alt_km": 856.3971745574863, "timestamp": "2025-12-22T23:36:20.988158+00:00", "meta": {"OBJECT_NAME": "FENGYUN 1C DEB", "OBJECT_ID": "1999-025VW", "EPOCH": "2025-12-22T03:45:43.490304", "MEAN_MOTION": 14.11625815, "ECCENTRICITY": 0.00724223, "INCLINATION": 99.1223, "RA_OF_ASC_NODE": 72.7533, "ARG_OF_PERICENTER": 217.7614, "MEAN_ANOMALY": 202.9181, "EPHEMERIS_TYPE": 0, "CLASSIFICATION_TYPE": "U", "NORAD_CAT_ID": 30213, "ELEMENT_SET_NO": 999, "REV_AT_EPOCH": 96648, "BSTAR": 0.0015806999, "MEAN_MOTION_DOT": 2.9e-05, "MEAN_MOTION_DDOT": 0}, "tle": {"line1": "1 30213U 99025VW  25356.15675336  .00002900  00000+0  15807-2 0  9994", "line2": "2 30213  99.1223  72.7533 0072422 217.7614 202.9181 14.11625815966489"}}, "geometry": {"type": "Point", "coordinates": [88.42784207465405, -57.888551957374844]}}, {"type": "Feature", "properties": {"norad_id": 30214, "name": "FENGYUN 1C DEB", "group": "fengyun-1c-debris", "lat": 69.66638467362608, "lon": -85.34867037441218, "alt_km": 782.8338419835209, "timestamp": "2025-12-22T23:36:20.988168+00:00", "meta": {"OBJECT_NAME": "FENGYUN 1C DEB", "OBJECT_ID": "1999-025VX", "EPOCH": "2025-12-20T04:06:49.264128", "MEAN_MOTION": 14.30979194, "ECCENTRICITY": 0.00203736, "INCLINATION": 98.7243, "RA_OF_ASC_NODE": 67.3499, "ARG_OF_PERICENTER": 21.7717, "MEAN_ANOMALY": 7.5824, "EPHEMERIS_TYPE": 0, "CLASSIFICATION_TYPE": "U", "NORAD_CAT_ID": 30214, "ELEMENT_SET_NO": 999, "REV_AT_EPOCH": 97673, "BSTAR": 0.0010820847, "MEAN_MOTION_DOT": 2.808e-05, "MEAN_MOTION_DDOT": 0}, "tle": {"line1": "1 30214U 99025VX  25354.17140352  .00002808  00000+0  10821-2 0  9998", "line2": "2 30214  98.7243  67.3499 0020373  21.7717   7.5824 14.30979194976738"}}, "geometry": {"type": "Point", "coordinates": [-85.34867037441218, 69.66638467362608]}}, {"type": "Feature", "properties": {"norad_id": 30217, "name": "FENGYUN 1C DEB", "group": "fengyun-1c-debris", "lat": 32.09171221652851, "lon": -24.984847488201577, "alt_km": 726.3012970324953, "timestamp": "2025-12-22T23:36:20.988179+00:00", "meta": {"OBJECT_NAME": "FENGYUN 1C DEB", "OBJECT_ID": "1999-025WA", "EPOCH": "2025-12-22T11:39:32.258592", "MEAN_MOTION": 14.24846862, "ECCENTRICITY": 0.01407052, "INCLINATION": 98.4324, "RA_OF_ASC_NODE": 339.8744, "ARG_OF_PERICENTER": 71.509, "MEAN_ANOMALY": 290.1322, "EPHEMERIS_TYPE": 0, "CLASSIFICATION_TYPE": "U", "NORAD_CAT_ID": 30217, "ELEMENT_SET_NO": 999, "REV_AT_EPOCH": 98212, "BSTAR": 0.00024773892, "MEAN_MOTION_DOT": 6e-06, "MEAN_MOTION_DDOT": 0}, "tle": {"line1": "1 30217U 99025WA  25356.48579003  .00000600  00000+0  24774-3 0  9997", "line2": "2 30217  98.4324 339.8744 0140705  71.5090 290.1322 14.24846862982128"}}, "geometry": {"type": "Point", "coordinates": [-24.984847488201577, 32.09171221652851]}}, {"type": "Feature", "properties": {"norad_id": 30218, "name": "FENGYUN 1C DEB", "group": "fengyun-1c-debris", "lat": 47.100887930347135, "lon": 76.86011544084538, "alt_km": 842.0973460433297, "timestamp": "2025-12-22T23:36:20.988189+00:00", "meta": {"OBJECT_NAME": "FENGYUN 1C DEB", "OBJECT_ID": "1999-025WB", "EPOCH": "2025-12-22T05:01:53.690880", "MEAN_MOTION": 14.28914432, "ECCENTRICITY": 0.00711726, "INCLINATION": 98.9875, "RA_OF_ASC_NODE": 85.869, "ARG_OF_PERICENTER": 226.9238, "MEAN_ANOMALY": 162.1471, "EPHEMERIS_TYPE": 0, "CLASSIFICATION_TYPE": "U", "NORAD_CAT_ID": 30218, "ELEMENT_SET_NO": 999, "REV_AT_EPOCH": 97244, "BSTAR": 0.0025323285, "MEAN_MOTION_DOT": 6.53e-05, "MEAN_MOTION_DDOT": 0}, "tle": {"line1": "1 30218U 99025WB  25356.20964920  .00006530  00000+0  25323-2 0  9992", "line2": "2 30218  98.9875  85.8690 0071172 226.9238 162.1471 14.28914432972444"}}, "geometry": {"type": "Point", "coordinates": [76.86011544084538, 47.100887930347135]}}, {"type": "Feature", "properties": {"norad_id": 30221, "name": "FENGYUN 1C DEB", "group": "fengyun-1c-debris", "lat": -42.368273096935894, "lon": -103.05045502684948, "alt_km": 832.9360133519494, "timestamp": "2025-12-22T23:36:20.988199+00:00", "meta": {"OBJECT_NAME": "FENGYUN 1C DEB", "OBJECT_ID": "1999-025WE", "EPOCH": "2025-12-22T12:36:35.989920", "MEAN_MOTION": 14.45829149, "ECCENTRICITY": 0.01449369, "INCLINATION": 98.9557, "RA_OF_ASC_NODE": 84.7358, "ARG_OF_PERICENTER": 12.2677, "MEAN_ANOMALY": 348.1981, "EPHEMERIS_TYPE": 0, "CLASSIFICATION_TYPE": "U", "NORAD_CAT_ID": 30221, "ELEMENT_SET_NO": 999, "REV_AT_EPOCH": 99542, "BSTAR": 0.00018750295, "MEAN_MOTION_DOT": 7.01e-06, "MEAN_MOTION_DDOT": 0}, "tle": {"line1": "1 30221U 99025WE  25356.52541655  .00000701  00000+0  18750-3 0  9998", "line2": "2 30221  98.9557  84.7358 0144936  12.2677 348.1981 14.45829149995420"}}, "geometry": {"type": "Point", "coordinates": [-103.05045502684948, -42.368273096935894]}}, {"type": "Feature", "properties": {"norad_id": 30222, "name": "FENGYUN 1C DEB", "group": "fengyun-1c-debris", "lat": 74.42384807753275, "lon": -115.9731501903023, "alt_km": 874.4768482236186, "timestamp": "2025-12-22T23:36:20.988209+00:00", "meta": {"OBJECT_NAME": "FENGYUN 1C DEB", "OBJECT_ID": "1999-025WF", "EPOCH": "2025-12-22T01:01:40.791072", "MEAN_MOTION": 14.04076675, "ECCENTRICITY": 0.00374051, "INCLINATION": 98.8399, "RA_OF_ASC_NODE": 29.1761, "ARG_OF_PERICENTER": 11.2608, "MEAN_ANOMALY": 18.6378, "EPHEMERIS_TYPE": 0, "CLASSIFICATION_TYPE": "U", "NORAD_CAT_ID": 30222, "ELEMENT_SET_NO": 999, "REV_AT_EPOCH": 96969, "BSTAR": 0.0001839477, "MEAN_MOTION_DOT": 2.5e-06, "MEAN_MOTION_DDOT": 0}, "tle": {"line1": "1 30222U 99025WF  25356.04283323  .00000250  00000+0  18395-3 0  9995", "line2": "2 30222  98.8399  29.1761 0037405  11.2608  18.6378 14.04076675969692"}}, "geometry": {"type": "Point", "coordinates": [-115.9731501903023, 74.42384807753275]}}]}